CZ-2C R/B               
1 54039U 22132E   26013.95598097  .00020439  00000+0  28119-3 0  9996
2 54039  97.2948  15.8255 0017070 297.8190  62.1335 15.57129171181840
GSLV R/B                
1 54149U 22138AN  26013.75746090  .00002059  00000+0  17884-3 0  9995
2 54149  87.3829 184.7492 0021520 357.6767   2.4361 14.96329913175712
XRISM                   
1 57800U 23137A   26013.81657462  .00003478  00000+0  19885-3 0  9992
2 57800  31.0024 278.3848 0007950 210.8515 149.1657 15.10758278129486
ACS3                    
1 59588U 24077B   26013.87139508  .00014880  00000+0  12508-1 0  9995
2 59588  97.2415 327.2961 0060007 256.4897 102.9574 13.87138315 86595
SZ-21 MODULE            
1 66515U 25246C   26013.73410762  .00022409  00000+0  22945-3 0  9995
2 66515  41.4739 180.5961 0001835 161.6783 198.4124 15.64448838  9450
